{
    "links": {
        "self": "http://www.neowsapp.com/rest/v1/neo/3893548?api_key=iIulBulltgU6a56xZRHN4H3l9WmuAYTsLGpBGhQ2"
    },
    "id": "3893548",
    "neo_reference_id": "3893548",
    "name": "(2019 WZ2)",
    "designation": "2019 WZ2",
    "nasa_jpl_url": "http://ssd.jpl.nasa.gov/sbdb.cgi?sstr=3893548",
    "absolute_magnitude_h": 25.3,
    "estimated_diameter": {
        "kilometers": {
            "estimated_diameter_min": 0.0231502122,
            "estimated_diameter_max": 0.0517654482
        },
        "meters": {
            "estimated_diameter_min": 23.150212221,
            "estimated_diameter_max": 51.7654482198
        },
        "miles": {
            "estimated_diameter_min": 0.0143848705,
            "estimated_diameter_max": 0.0321655483
        },
        "feet": {
            "estimated_diameter_min": 75.9521422633,
            "estimated_diameter_max": 169.8341531374
        }
    },
    "is_potentially_hazardous_asteroid": false,
    "close_approach_data": [
        {
            "close_approach_date": "2019-11-21",
            "close_approach_date_full": "2019-Nov-21 23:34",
            "epoch_date_close_approach": 1574379240000,
            "relative_velocity": {
                "kilometers_per_second": "9.4971150535",
                "kilometers_per_hour": "34189.6141924704",
                "miles_per_hour": "21244.0966630936"
            },
            "miss_distance": {
                "astronomical": "0.0227117064",
                "lunar": "8.8348537896",
                "kilometers": "3397622.901505368",
                "miles": "2111184.9740473584"
            },
            "orbiting_body": "Earth"
        },
        {
            "close_approach_date": "2077-11-18",
            "close_approach_date_full": "2077-Nov-18 00:03",
            "epoch_date_close_approach": 3404419380000,
            "relative_velocity": {
                "kilometers_per_second": "9.3832924886",
                "kilometers_per_hour": "33779.8529588256",
                "miles_per_hour": "20989.4869676659"
            },
            "miss_distance": {
                "astronomical": "0.0536038564",
                "lunar": "20.8519001396",
                "kilometers": "8019022.741225868",
                "miles": "4982789.6763702584"
            },
            "orbiting_body": "Earth"
        }
    ],
    "orbital_data": {
        "orbit_id": "2",
        "orbit_determination_date": "2019-11-30 06:14:20",
        "first_observation_date": "2019-11-24",
        "last_observation_date": "2019-11-29",
        "data_arc_in_days": 5,
        "observations_used": 18,
        "orbit_uncertainty": "7",
        "minimum_orbit_intersection": ".0229549",
        "jupiter_tisserand_invariant": "4.803",
        "epoch_osculation": "2459000.5",
        "eccentricity": ".2542926173316885",
        "semi_major_axis": "1.349217115121099",
        "inclination": "16.14876839635345",
        "ascending_node_longitude": "240.1186158315085",
        "orbital_period": "572.4284224393227",
        "perihelion_distance": "1.006121163568245",
        "perihelion_argument": "168.1575314160892",
        "aphelion_distance": "1.692313066673953",
        "perihelion_time": "2458799.419787122091",
        "mean_anomaly": "126.4592633740519",
        "mean_motion": ".6288995896917748",
        "equinox": "J2000",
        "orbit_class": {
            "orbit_class_type": "APO",
            "orbit_class_description": "Near-Earth asteroid orbits which cross the Earth’s orbit similar to that of 1862 Apollo",
            "orbit_class_range": "a (semi-major axis) > 1.0 AU; q (perihelion) < 1.017 AU"
        }
    },
    "is_sentry_object": false
}